[{"OBJECT_NAME":"ONEWEB-0575","OBJECT_ID":"2023-043U","EPOCH":"2025-12-14T07:58:03.701856","MEAN_MOTION":13.16596431,"ECCENTRICITY":0.00017146,"INCLINATION":87.9046,"RA_OF_ASC_NODE":265.5776,"ARG_OF_PERICENTER":88.3967,"MEAN_ANOMALY":271.7361,"EPHEMERIS_TYPE":0,"CLASSIFICATION_TYPE":"U","NORAD_CAT_ID":56064,"ELEMENT_SET_NO":999,"REV_AT_EPOCH":13464,"BSTAR":3.211939e-5,"MEAN_MOTION_DOT":2.5e-7,"MEAN_MOTION_DDOT":0},{"OBJECT_NAME":"ONEWEB-0576","OBJECT_ID":"2023-043V","EPOCH":"2025-12-14T07:30:42.458688","MEAN_MOTION":13.16594982,"ECCENTRICITY":0.00017054,"INCLINATION":87.905,"RA_OF_ASC_NODE":265.5823,"ARG_OF_PERICENTER":82.0998,"MEAN_ANOMALY":278.0326,"EPHEMERIS_TYPE":0,"CLASSIFICATION_TYPE":"U","NORAD_CAT_ID":56065,"ELEMENT_SET_NO":999,"REV_AT_EPOCH":13463,"BSTAR":0.00010538595,"MEAN_MOTION_DOT":5.3e-7,"MEAN_MOTION_DDOT":0},{"OBJECT_NAME":"ONEWEB-0577","OBJECT_ID":"2023-043W","EPOCH":"2025-12-14T07:39:49.256640","MEAN_MOTION":13.16595475,"ECCENTRICITY":0.00020968,"INCLINATION":87.9048,"RA_OF_ASC_NODE":265.5803,"ARG_OF_PERICENTER":95.553,"MEAN_ANOMALY":264.584,"EPHEMERIS_TYPE":0,"CLASSIFICATION_TYPE":"U","NORAD_CAT_ID":56066,"ELEMENT_SET_NO":999,"REV_AT_EPOCH":13466,"BSTAR":0.0001556209,"MEAN_MOTION_DOT":7.2e-7,"MEAN_MOTION_DDOT":0},{"OBJECT_NAME":"ONEWEB-0578","OBJECT_ID":"2023-043X","EPOCH":"2025-12-14T07:52:47.872704","MEAN_MOTION":13.21824565,"ECCENTRICITY":0.00015601,"INCLINATION":87.9221,"RA_OF_ASC_NODE":280.8448,"ARG_OF_PERICENTER":79.868,"MEAN_ANOMALY":280.263,"EPHEMERIS_TYPE":0,"CLASSIFICATION_TYPE":"U","NORAD_CAT_ID":56067,"ELEMENT_SET_NO":999,"REV_AT_EPOCH":13381,"BSTAR":0.00017500811,"MEAN_MOTION_DOT":8.5e-7,"MEAN_MOTION_DDOT":0},{"OBJECT_NAME":"ONEWEB-0579","OBJECT_ID":"2023-043Y","EPOCH":"2025-12-14T07:38:36.050784","MEAN_MOTION":13.21828267,"ECCENTRICITY":0.0002035,"INCLINATION":87.9223,"RA_OF_ASC_NODE":280.8343,"ARG_OF_PERICENTER":71.8796,"MEAN_ANOMALY":288.2559,"EPHEMERIS_TYPE":0,"CLASSIFICATION_TYPE":"U","NORAD_CAT_ID":56068,"ELEMENT_SET_NO":999,"REV_AT_EPOCH":13382,"BSTAR":0.0002821493,"MEAN_MOTION_DOT":1.3e-6,"MEAN_MOTION_DDOT":0},{"OBJECT_NAME":"ONEWEB-0581","OBJECT_ID":"2023-043Z","EPOCH":"2025-12-14T07:48:56.766528","MEAN_MOTION":13.1659586,"ECCENTRICITY":0.00020092,"INCLINATION":87.9047,"RA_OF_ASC_NODE":265.5928,"ARG_OF_PERICENTER":84.4398,"MEAN_ANOMALY":275.6962,"EPHEMERIS_TYPE":0,"CLASSIFICATION_TYPE":"U","NORAD_CAT_ID":56069,"ELEMENT_SET_NO":999,"REV_AT_EPOCH":13463,"BSTAR":-4.7071355e-5,"MEAN_MOTION_DOT":-5.0e-8,"MEAN_MOTION_DDOT":0},{"OBJECT_NAME":"ONEWEB-0609","OBJECT_ID":"2023-043AA","EPOCH":"2025-12-14T06:55:17.457600","MEAN_MOTION":13.15549759,"ECCENTRICITY":0.00017858,"INCLINATION":87.8996,"RA_OF_ASC_NODE":296.1132,"ARG_OF_PERICENTER":75.8723,"MEAN_ANOMALY":284.2605,"EPHEMERIS_TYPE":0,"CLASSIFICATION_TYPE":"U","NORAD_CAT_ID":56070,"ELEMENT_SET_NO":999,"REV_AT_EPOCH":13212,"BSTAR":0.00020174802,"MEAN_MOTION_DOT":8.9e-7,"MEAN_MOTION_DDOT":0},{"OBJECT_NAME":"ONEWEB-0613","OBJECT_ID":"2023-043AB","EPOCH":"2025-12-14T06:48:26.284320","MEAN_MOTION":13.15550855,"ECCENTRICITY":0.00019637,"INCLINATION":87.8994,"RA_OF_ASC_NODE":296.1265,"ARG_OF_PERICENTER":71.6276,"MEAN_ANOMALY":288.5068,"EPHEMERIS_TYPE":0,"CLASSIFICATION_TYPE":"U","NORAD_CAT_ID":56071,"ELEMENT_SET_NO":999,"REV_AT_EPOCH":13212,"BSTAR":1.9839522e-5,"MEAN_MOTION_DOT":2.0e-7,"MEAN_MOTION_DDOT":0},{"OBJECT_NAME":"ONEWEB-0630","OBJECT_ID":"2023-043AC","EPOCH":"2025-12-14T06:41:35.278656","MEAN_MOTION":13.15550413,"ECCENTRICITY":0.00019924,"INCLINATION":87.8991,"RA_OF_ASC_NODE":296.0988,"ARG_OF_PERICENTER":71.7982,"MEAN_ANOMALY":288.3365,"EPHEMERIS_TYPE":0,"CLASSIFICATION_TYPE":"U","NORAD_CAT_ID":56072,"ELEMENT_SET_NO":999,"REV_AT_EPOCH":13211,"BSTAR":3.473769e-6,"MEAN_MOTION_DOT":1.4e-7,"MEAN_MOTION_DDOT":0},{"OBJECT_NAME":"ONEWEB-0632","OBJECT_ID":"2023-043AD","EPOCH":"2025-12-14T06:34:44.368896","MEAN_MOTION":13.15547361,"ECCENTRICITY":0.00019019,"INCLINATION":87.8991,"RA_OF_ASC_NODE":296.118,"ARG_OF_PERICENTER":81.4725,"MEAN_ANOMALY":278.6621,"EPHEMERIS_TYPE":0,"CLASSIFICATION_TYPE":"U","NORAD_CAT_ID":56073,"ELEMENT_SET_NO":999,"REV_AT_EPOCH":13211,"BSTAR":-0.0014346078,"MEAN_MOTION_DOT":-5.27e-6,"MEAN_MOTION_DDOT":0},{"OBJECT_NAME":"ONEWEB-0633","OBJECT_ID":"2023-043AE","EPOCH":"2025-12-14T06:25:37.329888","MEAN_MOTION":13.15549911,"ECCENTRICITY":0.00019444,"INCLINATION":87.8989,"RA_OF_ASC_NODE":296.0822,"ARG_OF_PERICENTER":66.5004,"MEAN_ANOMALY":293.6331,"EPHEMERIS_TYPE":0,"CLASSIFICATION_TYPE":"U","NORAD_CAT_ID":56074,"ELEMENT_SET_NO":999,"REV_AT_EPOCH":13209,"BSTAR":-1.179853e-6,"MEAN_MOTION_DOT":1.2e-7,"MEAN_MOTION_DDOT":0},{"OBJECT_NAME":"ONEWEB-0634","OBJECT_ID":"2023-043AF","EPOCH":"2025-12-14T07:54:36.598464","MEAN_MOTION":13.15550289,"ECCENTRICITY":0.00014982,"INCLINATION":87.8995,"RA_OF_ASC_NODE":296.1196,"ARG_OF_PERICENTER":73.0808,"MEAN_ANOMALY":287.0486,"EPHEMERIS_TYPE":0,"CLASSIFICATION_TYPE":"U","NORAD_CAT_ID":56075,"ELEMENT_SET_NO":999,"REV_AT_EPOCH":13209,"BSTAR":0.00041885368,"MEAN_MOTION_DOT":1.71e-6,"MEAN_MOTION_DDOT":0},{"OBJECT_NAME":"ONEWEB-0635","OBJECT_ID":"2023-043AG","EPOCH":"2025-12-14T07:47:44.323584","MEAN_MOTION":13.15548287,"ECCENTRICITY":0.00019689,"INCLINATION":87.8992,"RA_OF_ASC_NODE":296.0744,"ARG_OF_PERICENTER":84.408,"MEAN_ANOMALY":275.7275,"EPHEMERIS_TYPE":0,"CLASSIFICATION_TYPE":"U","NORAD_CAT_ID":56076,"ELEMENT_SET_NO":999,"REV_AT_EPOCH":13212,"BSTAR":-0.00050298306,"MEAN_MOTION_DOT":-1.77e-6,"MEAN_MOTION_DDOT":0},{"OBJECT_NAME":"ONEWEB-0636","OBJECT_ID":"2023-043AH","EPOCH":"2025-12-14T07:36:20.210112","MEAN_MOTION":13.15547705,"ECCENTRICITY":0.00019827,"INCLINATION":87.899,"RA_OF_ASC_NODE":296.0938,"ARG_OF_PERICENTER":84.4834,"MEAN_ANOMALY":275.6522,"EPHEMERIS_TYPE":0,"CLASSIFICATION_TYPE":"U","NORAD_CAT_ID":56077,"ELEMENT_SET_NO":999,"REV_AT_EPOCH":13210,"BSTAR":-0.00022183319,"MEAN_MOTION_DOT":-7.1e-7,"MEAN_MOTION_DDOT":0},{"OBJECT_NAME":"ONEWEB-0637","OBJECT_ID":"2023-043AJ","EPOCH":"2025-12-14T07:27:13.236768","MEAN_MOTION":13.15551041,"ECCENTRICITY":0.00016016,"INCLINATION":87.8993,"RA_OF_ASC_NODE":296.1112,"ARG_OF_PERICENTER":85.5696,"MEAN_ANOMALY":274.5618,"EPHEMERIS_TYPE":0,"CLASSIFICATION_TYPE":"U","NORAD_CAT_ID":56078,"ELEMENT_SET_NO":999,"REV_AT_EPOCH":13212,"BSTAR":0.00073152093,"MEAN_MOTION_DOT":2.88e-6,"MEAN_MOTION_DDOT":0},{"OBJECT_NAME":"ONEWEB-0647","OBJECT_ID":"2023-043AK","EPOCH":"2025-12-14T07:20:23.407008","MEAN_MOTION":13.1554963,"ECCENTRICITY":0.0001954,"INCLINATION":87.899,"RA_OF_ASC_NODE":296.1254,"ARG_OF_PERICENTER":79.2414,"MEAN_ANOMALY":280.8936,"EPHEMERIS_TYPE":0,"CLASSIFICATION_TYPE":"U","NORAD_CAT_ID":56079,"ELEMENT_SET_NO":999,"REV_AT_EPOCH":13211,"BSTAR":0.00068538789,"MEAN_MOTION_DOT":2.71e-6,"MEAN_MOTION_DDOT":0}]
