ONEWEB-0575             
1 56064U 23043U   25348.33198729  .00000025  00000+0  32119-4 0  9993
2 56064  87.9046 265.5776 0001714  88.3967 271.7361 13.16596431134643
ONEWEB-0576             
1 56065U 23043V   25348.31299142  .00000053  00000+0  10539-3 0  9995
2 56065  87.9050 265.5823 0001705  82.0998 278.0326 13.16594982134636
ONEWEB-0577             
1 56066U 23043W   25348.31932010  .00000072  00000+0  15562-3 0  9996
2 56066  87.9048 265.5803 0002096  95.5530 264.5840 13.16595475134669
ONEWEB-0578             
1 56067U 23043X   25348.32833186  .00000085  00000+0  17501-3 0  9991
2 56067  87.9221 280.8448 0001560  79.8680 280.2630 13.21824565133813
ONEWEB-0579             
1 56068U 23043Y   25348.31847281  .00000130  00000+0  28215-3 0  9997
2 56068  87.9223 280.8343 0002035  71.8796 288.2559 13.21828267133820
ONEWEB-0581             
1 56069U 23043Z   25348.32565702 -.00000005  00000+0 -47071-4 0  9999
2 56069  87.9047 265.5928 0002009  84.4398 275.6962 13.16595860134635
ONEWEB-0609             
1 56070U 23043AA  25348.28839650  .00000089  00000+0  20175-3 0  9997
2 56070  87.8996 296.1132 0001785  75.8723 284.2605 13.15549759132129
ONEWEB-0613             
1 56071U 23043AB  25348.28363755  .00000020  00000+0  19840-4 0  9999
2 56071  87.8994 296.1265 0001963  71.6276 288.5068 13.15550855132129
ONEWEB-0630             
1 56072U 23043AC  25348.27888054  .00000014  00000+0  34738-5 0  9990
2 56072  87.8991 296.0988 0001992  71.7982 288.3365 13.15550413132112
ONEWEB-0632             
1 56073U 23043AD  25348.27412464 -.00000527  00000+0 -14346-2 0  9990
2 56073  87.8991 296.1180 0001901  81.4725 278.6621 13.15547361132116
ONEWEB-0633             
1 56074U 23043AE  25348.26779317  .00000012  00000+0 -11799-5 0  9993
2 56074  87.8989 296.0822 0001944  66.5004 293.6331 13.15549911132092
ONEWEB-0634             
1 56075U 23043AF  25348.32959026  .00000171  00000+0  41885-3 0  9990
2 56075  87.8995 296.1196 0001498  73.0808 287.0486 13.15550289132092
ONEWEB-0635             
1 56076U 23043AG  25348.32481856 -.00000177  00000+0 -50298-3 0  9998
2 56076  87.8992 296.0744 0001968  84.4080 275.7275 13.15548287132127
ONEWEB-0636             
1 56077U 23043AH  25348.31690058 -.00000071  00000+0 -22183-3 0  9999
2 56077  87.8990 296.0938 0001982  84.4834 275.6522 13.15547705132100
ONEWEB-0637             
1 56078U 23043AJ  25348.31056987  .00000288  00000+0  73152-3 0  9997
2 56078  87.8993 296.1112 0001601  85.5696 274.5618 13.15551041132129
ONEWEB-0647             
1 56079U 23043AK  25348.30582647  .00000271  00000+0  68539-3 0  9999
2 56079  87.8990 296.1254 0001954  79.2414 280.8936 13.15549630132116
